{"type": "FeatureCollection", "features": [ {"type": "Feature", "properties": {"norad_id": 66603, "name": "STARLINK-36048", "group": "last-30-days", "lat": -42.976804065751544, "lon": 148.83952854816252, "alt_km": 331.8913558824934, "timestamp": "2025-12-04T21:36:14.653401+00:00", "meta": {"OBJECT_NAME": "STARLINK-36048", "OBJECT_ID": "2025-270R", "EPOCH": "2025-12-03T21:40:34.816800", "MEAN_MOTION": 15.77266061, "ECCENTRICITY": 0.00104068, "INCLINATION": 42.9981, "RA_OF_ASC_NODE": 245.2035, "ARG_OF_PERICENTER": 263.8687, "MEAN_ANOMALY": 96.0997, "EPHEMERIS_TYPE": 0, "CLASSIFICATION_TYPE": "U", "NORAD_CAT_ID": 66603, "ELEMENT_SET_NO": 999, "REV_AT_EPOCH": 286, "BSTAR": 0.0029394154, "MEAN_MOTION_DOT": 0.00531136, "MEAN_MOTION_DDOT": 0}, "tle": {"line1": "1 66603U 25270R   25337.90318075  .00531136  00000+0  29394-2 0  9997", "line2": "2 66603  42.9981 245.2035 0010406 263.8687  96.0997 15.77266061  2865"}}, "geometry": {"type": "Point", "coordinates": [148.83952854816252, -42.976804065751544]}}, {"type": "Feature", "properties": {"norad_id": 66604, "name": "STARLINK-35977", "group": "last-30-days", "lat": -42.92988656796888, "lon": 152.4666635514014, "alt_km": 339.45360705866005, "timestamp": "2025-12-04T21:36:14.653412+00:00", "meta": {"OBJECT_NAME": "STARLINK-35977", "OBJECT_ID": "2025-270S", "EPOCH": "2025-12-03T11:01:46.597440", "MEAN_MOTION": 15.77554299, "ECCENTRICITY": 0.00039426, "INCLINATION": 42.9996, "RA_OF_ASC_NODE": 247.8966, "ARG_OF_PERICENTER": 347.7852, "MEAN_ANOMALY": 12.2922, "EPHEMERIS_TYPE": 0, "CLASSIFICATION_TYPE": "U", "NORAD_CAT_ID": 66604, "ELEMENT_SET_NO": 999, "REV_AT_EPOCH": 289, "BSTAR": 0.00071417663, "MEAN_MOTION_DOT": 0.00123952, "MEAN_MOTION_DDOT": 0}, "tle": {"line1": "1 66604U 25270S   25337.45956710  .00123952  00000+0  71418-3 0  9990", "line2": "2 66604  42.9996 247.8966 0003942 347.7852  12.2922 15.77554299  2890"}}, "geometry": {"type": "Point", "coordinates": [152.4666635514014, -42.92988656796888]}}, {"type": "Feature", "properties": {"norad_id": 66605, "name": "STARLINK-36052", "group": "last-30-days", "lat": -42.49085297759486, "lon": 138.5978373633666, "alt_km": 348.1733205004357, "timestamp": "2025-12-04T21:36:14.653422+00:00", "meta": {"OBJECT_NAME": "STARLINK-36052", "OBJECT_ID": "2025-270T", "EPOCH": "2025-12-04T11:21:56.539584", "MEAN_MOTION": 15.75113305, "ECCENTRICITY": 0.00018758, "INCLINATION": 42.9989, "RA_OF_ASC_NODE": 241.7404, "ARG_OF_PERICENTER": 67.5989, "MEAN_ANOMALY": 292.5079, "EPHEMERIS_TYPE": 0, "CLASSIFICATION_TYPE": "U", "NORAD_CAT_ID": 66605, "ELEMENT_SET_NO": 999, "REV_AT_EPOCH": 305, "BSTAR": 0.0017267182, "MEAN_MOTION_DOT": 0.00274463, "MEAN_MOTION_DDOT": 0}, "tle": {"line1": "1 66605U 25270T   25338.47357106  .00274463  00000+0  17267-2 0  9993", "line2": "2 66605  42.9989 241.7404 0001875  67.5989 292.5079 15.75113305  3056"}}, "geometry": {"type": "Point", "coordinates": [138.5978373633666, -42.49085297759486]}}, {"type": "Feature", "properties": {"norad_id": 66606, "name": "STARLINK-36063", "group": "last-30-days", "lat": -35.09752655555158, "lon": 108.17244224863444, "alt_km": 370.26042767403123, "timestamp": "2025-12-04T21:36:14.653432+00:00", "meta": {"OBJECT_NAME": "STARLINK-36063", "OBJECT_ID": "2025-270U", "EPOCH": "2025-12-04T02:13:26.401152", "MEAN_MOTION": 15.70932101, "ECCENTRICITY": 0.0031868, "INCLINATION": 42.9978, "RA_OF_ASC_NODE": 244.043, "ARG_OF_PERICENTER": 182.8429, "MEAN_ANOMALY": 177.2262, "EPHEMERIS_TYPE": 0, "CLASSIFICATION_TYPE": "U", "NORAD_CAT_ID": 66606, "ELEMENT_SET_NO": 999, "REV_AT_EPOCH": 299, "BSTAR": -0.056770882, "MEAN_MOTION_DOT": -0.06178149, "MEAN_MOTION_DDOT": 0}, "tle": {"line1": "1 66606U 25270U   25338.09266668 -.06178149  00000+0 -56771-1 0  9998", "line2": "2 66606  42.9978 244.0430 0031868 182.8429 177.2262 15.70932101  2998"}}, "geometry": {"type": "Point", "coordinates": [108.17244224863444, -35.09752655555158]}}, {"type": "Feature", "properties": {"norad_id": 66607, "name": "STARLINK-35993", "group": "last-30-days", "lat": -42.64066920189318, "lon": 140.36333803405478, "alt_km": 348.09623370384725, "timestamp": "2025-12-04T21:36:14.653442+00:00", "meta": {"OBJECT_NAME": "STARLINK-35993", "OBJECT_ID": "2025-270V", "EPOCH": "2025-12-04T00:42:13.697280", "MEAN_MOTION": 15.75244198, "ECCENTRICITY": 0.00015476, "INCLINATION": 42.9984, "RA_OF_ASC_NODE": 244.4293, "ARG_OF_PERICENTER": 280.1184, "MEAN_ANOMALY": 79.9511, "EPHEMERIS_TYPE": 0, "CLASSIFICATION_TYPE": "U", "NORAD_CAT_ID": 66607, "ELEMENT_SET_NO": 999, "REV_AT_EPOCH": 288, "BSTAR": -0.0024272821, "MEAN_MOTION_DOT": -0.00361066, "MEAN_MOTION_DDOT": 0}, "tle": {"line1": "1 66607U 25270V   25338.02932520 -.00361066  00000+0 -24273-2 0  9998", "line2": "2 66607  42.9984 244.4293 0001547 280.1184  79.9511 15.75244198  2888"}}, "geometry": {"type": "Point", "coordinates": [140.36333803405478, -42.64066920189318]}}, {"type": "Feature", "properties": {"norad_id": 66608, "name": "STARLINK-36036", "group": "last-30-days", "lat": -42.95666743422099, "lon": 146.9548607851617, "alt_km": 346.03975230168544, "timestamp": "2025-12-04T21:36:14.653454+00:00", "meta": {"OBJECT_NAME": "STARLINK-36036", "OBJECT_ID": "2025-270W", "EPOCH": "2025-12-04T05:15:11.882592", "MEAN_MOTION": 15.75206645, "ECCENTRICITY": 0.00013364, "INCLINATION": 42.9982, "RA_OF_ASC_NODE": 243.2689, "ARG_OF_PERICENTER": 286.6159, "MEAN_ANOMALY": 73.4563, "EPHEMERIS_TYPE": 0, "CLASSIFICATION_TYPE": "U", "NORAD_CAT_ID": 66608, "ELEMENT_SET_NO": 999, "REV_AT_EPOCH": 285, "BSTAR": 0.00089241727, "MEAN_MOTION_DOT": 0.00139923, "MEAN_MOTION_DDOT": 0}, "tle": {"line1": "1 66608U 25270W   25338.21888753  .00139923  00000+0  89242-3 0  9999", "line2": "2 66608  42.9982 243.2689 0001336 286.6159  73.4563 15.75206645  2850"}}, "geometry": {"type": "Point", "coordinates": [146.9548607851617, -42.95666743422099]}}, {"type": "Feature", "properties": {"norad_id": 66609, "name": "STARLINK-36034", "group": "last-30-days", "lat": -42.91344045366544, "lon": 152.94645051267025, "alt_km": 338.9193346750508, "timestamp": "2025-12-04T21:36:14.653464+00:00", "meta": {"OBJECT_NAME": "STARLINK-36034", "OBJECT_ID": "2025-270X", "EPOCH": "2025-12-04T15:53:27.072960", "MEAN_MOTION": 15.76402472, "ECCENTRICITY": 0.00064342, "INCLINATION": 42.998, "RA_OF_ASC_NODE": 240.5714, "ARG_OF_PERICENTER": 250.7584, "MEAN_ANOMALY": 109.2589, "EPHEMERIS_TYPE": 0, "CLASSIFICATION_TYPE": "U", "NORAD_CAT_ID": 66609, "ELEMENT_SET_NO": 999, "REV_AT_EPOCH": 292, "BSTAR": 0.0046786247, "MEAN_MOTION_DOT": 0.00843446, "MEAN_MOTION_DDOT": 0}, "tle": {"line1": "1 66609U 25270X   25338.66211890  .00843446  00000+0  46786-2 0  9998", "line2": "2 66609  42.9980 240.5714 0006434 250.7584 109.2589 15.76402472  2927"}}, "geometry": {"type": "Point", "coordinates": [152.94645051267025, -42.91344045366544]}}, {"type": "Feature", "properties": {"norad_id": 66610, "name": "STARLINK-35680", "group": "last-30-days", "lat": -42.73695716216599, "lon": 156.540084915671, "alt_km": 347.12455010875874, "timestamp": "2025-12-04T21:36:14.653474+00:00", "meta": {"OBJECT_NAME": "STARLINK-35680", "OBJECT_ID": "2025-270Y", "EPOCH": "2025-12-04T15:52:26.537664", "MEAN_MOTION": 15.75340884, "ECCENTRICITY": 0.00029744, "INCLINATION": 42.9983, "RA_OF_ASC_NODE": 240.5652, "ARG_OF_PERICENTER": 311.3213, "MEAN_ANOMALY": 48.74, "EPHEMERIS_TYPE": 0, "CLASSIFICATION_TYPE": "U", "NORAD_CAT_ID": 66610, "ELEMENT_SET_NO": 999, "REV_AT_EPOCH": 319, "BSTAR": -0.0080759974, "MEAN_MOTION_DOT": -0.01124264, "MEAN_MOTION_DDOT": 0}, "tle": {"line1": "1 66610U 25270Y   25338.66141826 -.01124264  00000+0 -80760-2 0  9994", "line2": "2 66610  42.9983 240.5652 0002974 311.3213  48.7400 15.75340884  3197"}}, "geometry": {"type": "Point", "coordinates": [156.540084915671, -42.73695716216599]}}, {"type": "Feature", "properties": {"norad_id": 66611, "name": "STARLINK-35583", "group": "last-30-days", "lat": -42.88277946211236, "lon": 153.78198208376344, "alt_km": 347.21820475514323, "timestamp": "2025-12-04T21:36:14.653486+00:00", "meta": {"OBJECT_NAME": "STARLINK-35583", "OBJECT_ID": "2025-270Z", "EPOCH": "2025-12-04T00:39:47.360736", "MEAN_MOTION": 15.75261982, "ECCENTRICITY": 0.0002117, "INCLINATION": 42.9983, "RA_OF_ASC_NODE": 244.4157, "ARG_OF_PERICENTER": 269.8179, "MEAN_ANOMALY": 90.2447, "EPHEMERIS_TYPE": 0, "CLASSIFICATION_TYPE": "U", "NORAD_CAT_ID": 66611, "ELEMENT_SET_NO": 999, "REV_AT_EPOCH": 309, "BSTAR": -0.0019238022, "MEAN_MOTION_DOT": -0.00288953, "MEAN_MOTION_DDOT": 0}, "tle": {"line1": "1 66611U 25270Z   25338.02763149 -.00288953  00000+0 -19238-2 0  9990", "line2": "2 66611  42.9983 244.4157 0002117 269.8179  90.2447 15.75261982  3091"}}, "geometry": {"type": "Point", "coordinates": [153.78198208376344, -42.88277946211236]}}, {"type": "Feature", "properties": {"norad_id": 66612, "name": "STARLINK-36039", "group": "last-30-days", "lat": -42.294369587360045, "lon": 161.5915267312393, "alt_km": 347.28589599434963, "timestamp": "2025-12-04T21:36:14.653498+00:00", "meta": {"OBJECT_NAME": "STARLINK-36039", "OBJECT_ID": "2025-270AA", "EPOCH": "2025-12-04T05:12:15.198048", "MEAN_MOTION": 15.75321693, "ECCENTRICITY": 0.00024682, "INCLINATION": 42.9986, "RA_OF_ASC_NODE": 243.2518, "ARG_OF_PERICENTER": 288.8631, "MEAN_ANOMALY": 71.1971, "EPHEMERIS_TYPE": 0, "CLASSIFICATION_TYPE": "U", "NORAD_CAT_ID": 66612, "ELEMENT_SET_NO": 999, "REV_AT_EPOCH": 301, "BSTAR": -0.0032170008, "MEAN_MOTION_DOT": -0.00473872, "MEAN_MOTION_DDOT": 0}, "tle": {"line1": "1 66612U 25270AA  25338.21684257 -.00473872  00000+0 -32170-2 0  9990", "line2": "2 66612  42.9986 243.2518 0002468 288.8631  71.1971 15.75321693  3014"}}, "geometry": {"type": "Point", "coordinates": [161.5915267312393, -42.294369587360045]}}]}